CCSDS_OMM_VERS = 2.0
CREATION_DATE  = 
ORIGINATOR     = 

OBJECT_NAME    = STARLINK-36488
OBJECT_ID      = 2026-002B
CENTER_NAME    = EARTH
REF_FRAME      = TEME
TIME_SYSTEM    = UTC
MEAN_ELEMENT_THEORY = SGP/SGP4

EPOCH          = 2026-01-21T12:00:01.999296
MEAN_MOTION    = 15.75002981
ECCENTRICITY   = .000175
INCLINATION    = 42.9988
RA_OF_ASC_NODE = 236.1210
ARG_OF_PERICENTER = 260.7765
MEAN_ANOMALY   = 40.9137

EPHEMERIS_TYPE = 0
CLASSIFICATION_TYPE = U
NORAD_CAT_ID   = 67306
ELEMENT_SET_NO = 999
REV_AT_EPOCH   = 383
BSTAR          = .55834E-3
MEAN_MOTION_DOT = .86032E-3
MEAN_MOTION_DDOT = 0

CCSDS_OMM_VERS = 2.0
CREATION_DATE  = 
ORIGINATOR     = 

OBJECT_NAME    = STARLINK-36481
OBJECT_ID      = 2026-002C
CENTER_NAME    = EARTH
REF_FRAME      = TEME
TIME_SYSTEM    = UTC
MEAN_ELEMENT_THEORY = SGP/SGP4

EPOCH          = 2026-01-21T12:00:01.999296
MEAN_MOTION    = 15.74997134
ECCENTRICITY   = .0001739
INCLINATION    = 42.9990
RA_OF_ASC_NODE = 236.1117
ARG_OF_PERICENTER = 262.0199
MEAN_ANOMALY   = 43.5027

EPHEMERIS_TYPE = 0
CLASSIFICATION_TYPE = U
NORAD_CAT_ID   = 67307
ELEMENT_SET_NO = 999
REV_AT_EPOCH   = 383
BSTAR          = .60081E-3
MEAN_MOTION_DOT = .92662E-3
MEAN_MOTION_DDOT = 0

CCSDS_OMM_VERS = 2.0
CREATION_DATE  = 
ORIGINATOR     = 

OBJECT_NAME    = STARLINK-36449
OBJECT_ID      = 2026-002D
CENTER_NAME    = EARTH
REF_FRAME      = TEME
TIME_SYSTEM    = UTC
MEAN_ELEMENT_THEORY = SGP/SGP4

EPOCH          = 2026-01-21T12:00:01.999296
MEAN_MOTION    = 15.74980276
ECCENTRICITY   = .0001541
INCLINATION    = 42.9988
RA_OF_ASC_NODE = 236.1074
ARG_OF_PERICENTER = 253.1055
MEAN_ANOMALY   = 54.3334

EPHEMERIS_TYPE = 0
CLASSIFICATION_TYPE = U
NORAD_CAT_ID   = 67308
ELEMENT_SET_NO = 999
REV_AT_EPOCH   = 389
BSTAR          = .93722E-3
MEAN_MOTION_DOT = .145623E-2
MEAN_MOTION_DDOT = 0

CCSDS_OMM_VERS = 2.0
CREATION_DATE  = 
ORIGINATOR     = 

OBJECT_NAME    = STARLINK-36482
OBJECT_ID      = 2026-002E
CENTER_NAME    = EARTH
REF_FRAME      = TEME
TIME_SYSTEM    = UTC
MEAN_ELEMENT_THEORY = SGP/SGP4

EPOCH          = 2026-01-21T12:00:01.999296
MEAN_MOTION    = 15.74995635
ECCENTRICITY   = .0001723
INCLINATION    = 42.9988
RA_OF_ASC_NODE = 236.0834
ARG_OF_PERICENTER = 260.2756
MEAN_ANOMALY   = 56.7536

EPHEMERIS_TYPE = 0
CLASSIFICATION_TYPE = U
NORAD_CAT_ID   = 67309
ELEMENT_SET_NO = 999
REV_AT_EPOCH   = 383
BSTAR          = .64235E-3
MEAN_MOTION_DOT = .99172E-3
MEAN_MOTION_DDOT = 0

CCSDS_OMM_VERS = 2.0
CREATION_DATE  = 
ORIGINATOR     = 

OBJECT_NAME    = STARLINK-36491
OBJECT_ID      = 2026-002F
CENTER_NAME    = EARTH
REF_FRAME      = TEME
TIME_SYSTEM    = UTC
MEAN_ELEMENT_THEORY = SGP/SGP4

EPOCH          = 2026-01-21T12:00:01.999296
MEAN_MOTION    = 15.74976508
ECCENTRICITY   = .0001504
INCLINATION    = 42.9989
RA_OF_ASC_NODE = 236.1174
ARG_OF_PERICENTER = 261.1878
MEAN_ANOMALY   = 42.4134

EPHEMERIS_TYPE = 0
CLASSIFICATION_TYPE = U
NORAD_CAT_ID   = 67310
ELEMENT_SET_NO = 999
REV_AT_EPOCH   = 383
BSTAR          = .11052E-2
MEAN_MOTION_DOT = .172325E-2
MEAN_MOTION_DDOT = 0

CCSDS_OMM_VERS = 2.0
CREATION_DATE  = 
ORIGINATOR     = 

OBJECT_NAME    = STARLINK-36495
OBJECT_ID      = 2026-002G
CENTER_NAME    = EARTH
REF_FRAME      = TEME
TIME_SYSTEM    = UTC
MEAN_ELEMENT_THEORY = SGP/SGP4

EPOCH          = 2026-01-21T12:00:01.999296
MEAN_MOTION    = 15.75008583
ECCENTRICITY   = .000215
INCLINATION    = 42.9989
RA_OF_ASC_NODE = 236.1032
ARG_OF_PERICENTER = 266.1148
MEAN_ANOMALY   = 43.2748

EPHEMERIS_TYPE = 0
CLASSIFICATION_TYPE = U
NORAD_CAT_ID   = 67311
ELEMENT_SET_NO = 999
REV_AT_EPOCH   = 398
BSTAR          = .45195E-3
MEAN_MOTION_DOT = .6943E-3
MEAN_MOTION_DDOT = 0

CCSDS_OMM_VERS = 2.0
CREATION_DATE  = 
ORIGINATOR     = 

OBJECT_NAME    = STARLINK-36485
OBJECT_ID      = 2026-002H
CENTER_NAME    = EARTH
REF_FRAME      = TEME
TIME_SYSTEM    = UTC
MEAN_ELEMENT_THEORY = SGP/SGP4

EPOCH          = 2026-01-21T12:00:01.999296
MEAN_MOTION    = 15.74988021
ECCENTRICITY   = .0001705
INCLINATION    = 42.9989
RA_OF_ASC_NODE = 236.0974
ARG_OF_PERICENTER = 258.8080
MEAN_ANOMALY   = 52.4670

EPHEMERIS_TYPE = 0
CLASSIFICATION_TYPE = U
NORAD_CAT_ID   = 67312
ELEMENT_SET_NO = 999
REV_AT_EPOCH   = 383
BSTAR          = .70525E-3
MEAN_MOTION_DOT = .109021E-2
MEAN_MOTION_DDOT = 0

CCSDS_OMM_VERS = 2.0
CREATION_DATE  = 
ORIGINATOR     = 

OBJECT_NAME    = STARLINK-36445
OBJECT_ID      = 2026-002J
CENTER_NAME    = EARTH
REF_FRAME      = TEME
TIME_SYSTEM    = UTC
MEAN_ELEMENT_THEORY = SGP/SGP4

EPOCH          = 2026-01-21T12:00:01.999296
MEAN_MOTION    = 15.74998336
ECCENTRICITY   = .0001584
INCLINATION    = 42.9990
RA_OF_ASC_NODE = 236.0919
ARG_OF_PERICENTER = 267.3322
MEAN_ANOMALY   = 45.8555

EPHEMERIS_TYPE = 0
CLASSIFICATION_TYPE = U
NORAD_CAT_ID   = 67313
ELEMENT_SET_NO = 999
REV_AT_EPOCH   = 398
BSTAR          = .5137E-3
MEAN_MOTION_DOT = .79032E-3
MEAN_MOTION_DDOT = 0

CCSDS_OMM_VERS = 2.0
CREATION_DATE  = 
ORIGINATOR     = 

OBJECT_NAME    = STARLINK-36476
OBJECT_ID      = 2026-002K
CENTER_NAME    = EARTH
REF_FRAME      = TEME
TIME_SYSTEM    = UTC
MEAN_ELEMENT_THEORY = SGP/SGP4

EPOCH          = 2026-01-21T12:00:01.999296
MEAN_MOTION    = 15.74997803
ECCENTRICITY   = .0001712
INCLINATION    = 42.9990
RA_OF_ASC_NODE = 236.0884
ARG_OF_PERICENTER = 260.0561
MEAN_ANOMALY   = 55.0506

EPHEMERIS_TYPE = 0
CLASSIFICATION_TYPE = U
NORAD_CAT_ID   = 67314
ELEMENT_SET_NO = 999
REV_AT_EPOCH   = 383
BSTAR          = .64338E-3
MEAN_MOTION_DOT = .99343E-3
MEAN_MOTION_DDOT = 0

CCSDS_OMM_VERS = 2.0
CREATION_DATE  = 
ORIGINATOR     = 

OBJECT_NAME    = STARLINK-36463
OBJECT_ID      = 2026-002L
CENTER_NAME    = EARTH
REF_FRAME      = TEME
TIME_SYSTEM    = UTC
MEAN_ELEMENT_THEORY = SGP/SGP4

EPOCH          = 2026-01-21T12:00:01.999296
MEAN_MOTION    = 15.74987341
ECCENTRICITY   = .0001633
INCLINATION    = 42.9989
RA_OF_ASC_NODE = 236.0783
ARG_OF_PERICENTER = 256.7729
MEAN_ANOMALY   = 62.1727

EPHEMERIS_TYPE = 0
CLASSIFICATION_TYPE = U
NORAD_CAT_ID   = 67315
ELEMENT_SET_NO = 999
REV_AT_EPOCH   = 389
BSTAR          = .70509E-3
MEAN_MOTION_DOT = .108993E-2
MEAN_MOTION_DDOT = 0

CCSDS_OMM_VERS = 2.0
CREATION_DATE  = 
ORIGINATOR     = 

OBJECT_NAME    = STARLINK-36461
OBJECT_ID      = 2026-002M
CENTER_NAME    = EARTH
REF_FRAME      = TEME
TIME_SYSTEM    = UTC
MEAN_ELEMENT_THEORY = SGP/SGP4

EPOCH          = 2026-01-21T12:00:01.999296
MEAN_MOTION    = 15.74992536
ECCENTRICITY   = .0001757
INCLINATION    = 42.9988
RA_OF_ASC_NODE = 236.0728
ARG_OF_PERICENTER = 257.0109
MEAN_ANOMALY   = 63.8566

EPHEMERIS_TYPE = 0
CLASSIFICATION_TYPE = U
NORAD_CAT_ID   = 67316
ELEMENT_SET_NO = 999
REV_AT_EPOCH   = 398
BSTAR          = .5856E-3
MEAN_MOTION_DOT = .9026E-3
MEAN_MOTION_DDOT = 0

CCSDS_OMM_VERS = 2.0
CREATION_DATE  = 
ORIGINATOR     = 

OBJECT_NAME    = STARLINK-36450
OBJECT_ID      = 2026-002N
CENTER_NAME    = EARTH
REF_FRAME      = TEME
TIME_SYSTEM    = UTC
MEAN_ELEMENT_THEORY = SGP/SGP4

EPOCH          = 2026-01-21T12:00:01.999296
MEAN_MOTION    = 15.74980769
ECCENTRICITY   = .0001628
INCLINATION    = 42.9988
RA_OF_ASC_NODE = 236.0690
ARG_OF_PERICENTER = 258.2614
MEAN_ANOMALY   = 64.5101

EPHEMERIS_TYPE = 0
CLASSIFICATION_TYPE = U
NORAD_CAT_ID   = 67317
ELEMENT_SET_NO = 999
REV_AT_EPOCH   = 398
BSTAR          = .10188E-2
MEAN_MOTION_DOT = .158592E-2
MEAN_MOTION_DDOT = 0

