STARLINK-36488          
1 67306U 26002B   26021.50002314  .00086032  00000+0  55834-3 0  9994
2 67306  42.9988 236.1210 0001750 260.7765  40.9137 15.75002981  3831
STARLINK-36481          
1 67307U 26002C   26021.50002314  .00092662  00000+0  60081-3 0  9991
2 67307  42.9990 236.1117 0001739 262.0199  43.5027 15.74997134  3833
STARLINK-36449          
1 67308U 26002D   26021.50002314  .00145623  00000+0  93722-3 0  9996
2 67308  42.9988 236.1074 0001541 253.1055  54.3334 15.74980276  3892
STARLINK-36482          
1 67309U 26002E   26021.50002314  .00099172  00000+0  64235-3 0  9991
2 67309  42.9988 236.0834 0001723 260.2756  56.7536 15.74995635  3834
STARLINK-36491          
1 67310U 26002F   26021.50002314  .00172325  00000+0  11052-2 0  9993
2 67310  42.9989 236.1174 0001504 261.1878  42.4134 15.74976508  3831
STARLINK-36495          
1 67311U 26002G   26021.50002314  .00069430  00000+0  45195-3 0  9992
2 67311  42.9989 236.1032 0002150 266.1148  43.2748 15.75008583  3984
STARLINK-36485          
1 67312U 26002H   26021.50002314  .00109021  00000+0  70525-3 0  9999
2 67312  42.9989 236.0974 0001705 258.8080  52.4670 15.74988021  3830
STARLINK-36445          
1 67313U 26002J   26021.50002314  .00079032  00000+0  51370-3 0  9995
2 67313  42.9990 236.0919 0001584 267.3322  45.8555 15.74998336  3985
STARLINK-36476          
1 67314U 26002K   26021.50002314  .00099343  00000+0  64338-3 0  9991
2 67314  42.9990 236.0884 0001712 260.0561  55.0506 15.74997803  3836
STARLINK-36463          
1 67315U 26002L   26021.50002314  .00108993  00000+0  70509-3 0  9991
2 67315  42.9989 236.0783 0001633 256.7729  62.1727 15.74987341  3899
STARLINK-36461          
1 67316U 26002M   26021.50002314  .00090260  00000+0  58560-3 0  9992
2 67316  42.9988 236.0728 0001757 257.0109  63.8566 15.74992536  3982
STARLINK-36450          
1 67317U 26002N   26021.50002314  .00158592  00000+0  10188-2 0  9999
2 67317  42.9988 236.0690 0001628 258.2614  64.5101 15.74980769  3980
